#dV2023  1  8 10  0  0.00000000    1682       CTS   FIT  GFZ
## 2244  36000.00000000    30.00000000 59952 0.4166666666667
+    1   L65  0  0  0  0  0  0  0  0  0  0  0  0  0  0  0  0
+          0  0  0  0  0  0  0  0  0  0  0  0  0  0  0  0  0
+          0  0  0  0  0  0  0  0  0  0  0  0  0  0  0  0  0
+          0  0  0  0  0  0  0  0  0  0  0  0  0  0  0  0  0
+          0  0  0  0  0  0  0  0  0  0  0  0  0  0  0  0  0
++         0  0  0  0  0  0  0  0  0  0  0  0  0  0  0  0  0
++         0  0  0  0  0  0  0  0  0  0  0  0  0  0  0  0  0
++         0  0  0  0  0  0  0  0  0  0  0  0  0  0  0  0  0
++         0  0  0  0  0  0  0  0  0  0  0  0  0  0  0  0  0
++         0  0  0  0  0  0  0  0  0  0  0  0  0  0  0  0  0
%c L  cc GPS ccc cccc cccc cccc cccc ccccc ccccc ccccc ccccc
%c cc cc ccc ccc cccc cccc cccc cccc ccccc ccccc ccccc ccccc
%f  0.0000000  0.000000000  0.00000000000  0.000000000000000
%f  0.0000000  0.000000000  0.00000000000  0.000000000000000
%i    0    0    0    0      0      0      0      0         0
%i    0    0    0    0      0      0      0      0         0
/* CCCCCCCCCCCCCCCCCCCCCCCCCCCCCCCCCCCCCCCCCCCCCCCCCCCCCCCCCCCCCCCCCCCCCCCCCCCCC
/* C                             GFZ RSO-ORBIT                                 C
/* C DOI: https://doi.org/10.5880/GFZ_ORBIT/RSO/L65_G_v02                      C
/* C                                                                           C
/* C DORIS        RMS: not applicable                                          C
/* C GNSS-E Code  RMS: not applicable                                          C
/* C GNSS-E Phase RMS: not applicable                                          C
/* C GNSS-G Code  RMS:  50.176 [cm]   Obs.acc.:     14108 Obs.eli.:      1244  C
/* C GNSS-G Phase RMS:   4.376 [mm]   Obs.acc.:     14108 Obs.eli.:      1244  C
/* C SLR          RMS:   7.140 [cm]   Obs.acc.:        86 Obs.eli.:         0  C
/* C                                                                           C
/* CCCCCCCCCCCCCCCCCCCCCCCCCCCCCCCCCCCCCCCCCCCCCCCCCCCCCCCCCCCCCCCCCCCCCCCCCCCCC
*  2023  1  8 22 19 30.00000000
PL65   -627.818904   1581.020634  -6656.695870  25136.515201
VL65  23245.897472 -69906.615728 -18747.835708 999999.999999
*  2023  1  8 22 20  0.00000000
PL65   -558.210164   1370.320766  -6709.256706  25136.982052
VL65  23155.224242 -70547.068320 -16289.518126 999999.999999
*  2023  1  8 22 20 30.00000000
PL65   -488.915564   1157.815986  -6754.415101  25137.448840
VL65  23036.547243 -71109.762182 -13813.323389 999999.999999
*  2023  1  8 22 21  0.00000000
PL65   -420.018411    943.740682  -6792.121474  25137.915669
VL65  22890.340669 -71593.970255 -11321.956511 999999.999999
*  2023  1  8 22 21 30.00000000
PL65   -351.600544    728.331294  -6822.334387  25138.382563
VL65  22717.110449 -71999.051583  -8818.137366 999999.999999
*  2023  1  8 22 22  0.00000000
PL65   -283.742236    511.826057  -6845.020578  25138.849490
VL65  22517.393793 -72324.451434  -6304.598385 999999.999999
*  2023  1  8 22 22 30.00000000
PL65   -216.522100    294.464737  -6860.154999  25139.316454
VL65  22291.759406 -72569.702197  -3784.081807 999999.999999
*  2023  1  8 22 23  0.00000000
PL65   -150.016999     76.488376  -6867.720840  25139.783382
VL65  22040.806504 -72734.423472  -1259.336214 999999.999999
*  2023  1  8 22 23 30.00000000
PL65    -84.301952   -141.860978  -6867.709541  25140.250304
VL65  21765.163350 -72818.321936   1266.885385 999999.999999
*  2023  1  8 22 24  0.00000000
PL65    -19.450054   -360.340525  -6860.120807  25140.717219
VL65  21465.485718 -72821.192220   3791.827588 999999.999999
*  2023  1  8 22 24 30.00000000
PL65     44.467608   -578.706983  -6844.962610  25141.184092
VL65  21142.454841 -72742.917767   6312.735262 999999.999999
*  2023  1  8 22 25  0.00000000
PL65    107.382027   -796.716857  -6822.251182  25141.651022
VL65  20796.776515 -72583.471837   8826.856728 999999.999999
*  2023  1  8 22 25 30.00000000
PL65    169.226349  -1014.126703  -6792.011000  25142.118010
VL65  20429.180995 -72342.917201  11331.447804 999999.999999
*  2023  1  8 22 26  0.00000000
PL65    229.935948  -1230.693399  -6754.274760  25142.585032
VL65  20040.422080 -72021.404796  13823.774366 999999.999999
*  2023  1  8 22 26 30.00000000
PL65    289.448493  -1446.174410  -6709.083341  25143.052061
VL65  19631.275580 -71619.173522  16301.113909 999999.999999
*  2023  1  8 22 27  0.00000000
PL65    347.704010  -1660.328046  -6656.485773  25143.519128
VL65  19202.537466 -71136.550508  18760.757369 999999.999999
*  2023  1  8 22 27 30.00000000
PL65    404.644940  -1872.913734  -6596.539188  25143.986088
VL65  18755.022169 -70573.951931  21200.010661 999999.999999
*  2023  1  8 22 28  0.00000000
PL65    460.216197  -2083.692286  -6529.308776  25144.452990
VL65  18289.561775 -69931.884842  23616.197754 999999.999999
*  2023  1  8 22 28 30.00000000
PL65    514.365214  -2292.426169  -6454.867722  25144.919905
VL65  17807.005199 -69210.946942  26006.665358 999999.999999
*  2023  1  8 22 29  0.00000000
PL65    567.041996  -2498.879781  -6373.297132  25145.386856
VL65  17308.216722 -68411.825192  28368.785802 999999.999999
*  2023  1  8 22 29 30.00000000
PL65    618.199161  -2702.819710  -6284.685954  25145.853663
VL65  16794.074738 -67535.295535  30699.959872 999999.999999
*  2023  1  8 22 30  0.00000000
PL65    667.791982  -2904.015007  -6189.130888  25146.320559
VL65  16265.470737 -66582.221614  32997.620074 999999.999999
*  2023  1  8 22 30 30.00000000
PL65    715.778426  -3102.237443  -6086.736283  25146.787556
VL65  15723.308348 -65553.553800  35259.232405 999999.999999
*  2023  1  8 22 31  0.00000000
PL65    762.119188  -3297.261770  -5977.614040  25147.254102
VL65  15168.502150 -64450.329257  37482.298907 999999.999999
*  2023  1  8 22 31 30.00000000
PL65    806.777719  -3488.865982  -5861.883496  25147.720620
VL65  14601.976173 -63273.671015  39664.360914 999999.999999
*  2023  1  8 22 32  0.00000000
PL65    849.720257  -3676.831567  -5739.671298  25148.187173
VL65  14024.662679 -62024.786814  41803.001515 999999.999999
*  2023  1  8 22 32 30.00000000
PL65    890.915847  -3860.943765  -5611.111282  25148.653669
VL65  13437.501135 -60704.968232  43895.848099 999999.999999
*  2023  1  8 22 33  0.00000000
PL65    930.336361  -4040.991814  -5476.344331  25149.120337
VL65  12841.436793 -59315.589421  45940.574862 999999.999999
*  2023  1  8 22 33 30.00000000
PL65    967.956514  -4216.769195  -5335.518231  25149.586095
VL65  12237.418996 -57858.106258  47934.904968 999999.999999
*  2023  1  8 22 34  0.00000000
PL65   1003.753873  -4388.073881  -5188.787524  25150.051590
VL65  11626.399733 -56334.055684  49876.613367 999999.999999
*  2023  1  8 22 34 30.00000000
PL65   1037.708864  -4554.708575  -5036.313345  25150.517807
VL65  11009.332216 -54745.054126  51763.529855 999999.999999
*  2023  1  8 22 35  0.00000000
PL65   1069.804772  -4716.480947  -4878.263252  25150.984384
VL65  10387.169602 -53092.795919  53593.541379 999999.999999
*  2023  1  8 22 35 30.00000000
PL65   1100.027739  -4873.203863  -4714.811057  25151.451023
VL65   9760.864004 -51379.052289  55364.594728 999999.999999
*  2023  1  8 22 36  0.00000000
PL65   1128.366763  -5024.695619  -4546.136634  25151.917454
VL65   9131.365230 -49605.669555  57074.699820 999999.999999
*  2023  1  8 22 36 30.00000000
PL65   1154.813683  -5170.780158  -4372.425733  25152.383604
VL65   8499.619138 -47774.566831  58721.932397 999999.999999
*  2023  1  8 22 37  0.00000000
PL65   1179.363171  -5311.287287  -4193.869771  25152.849747
VL65   7866.566064 -45887.733670  60304.436366 999999.999999
*  2023  1  8 22 37 30.00000000
PL65   1202.012706  -5446.052885  -4010.665632  25153.316263
VL65   7233.139500 -43947.227590  61820.425559 999999.999999
*  2023  1  8 22 38  0.00000000
PL65   1222.762560  -5574.919101  -3823.015449  25153.782719
VL65   6600.265110 -41955.172455  63268.185361 999999.999999
*  2023  1  8 22 38 30.00000000
PL65   1241.615766  -5697.734557  -3631.126392  25154.249418
VL65   5968.859599 -39913.756739  64646.075261 999999.999999
*  2023  1  8 22 39  0.00000000
PL65   1258.578093  -5814.354530  -3435.210434  25154.716026
VL65   5339.829160 -37825.230962  65952.531256 999999.999999
*  2023  1  8 22 39 30.00000000
PL65   1273.658011  -5924.641141  -3235.484127  25155.182787
VL65   4714.068144 -35691.905213  67186.067756 999999.999999
*  2023  1  8 22 40  0.00000000
PL65   1286.866654  -6028.463527  -3032.168355  25155.649313
VL65   4092.458063 -33516.146950  68345.279587 999999.999999
*  2023  1  8 22 40 30.00000000
PL65   1298.217779  -6125.698011  -2825.488099  25156.115991
VL65   3475.866507 -31300.378593  69428.844418 999999.999999
*  2023  1  8 22 41  0.00000000
PL65   1307.727724  -6216.228261  -2615.672176  25156.582521
VL65   2865.145856 -29047.074242  70435.525269 999999.999999
*  2023  1  8 22 41 30.00000000
PL65   1315.415361  -6299.945441  -2402.952984  25157.049195
VL65   2261.131967 -26758.755879  71364.171948 999999.999999
*  2023  1  8 22 42  0.00000000
PL65   1321.302042  -6376.748348  -2187.566244  25157.515884
VL65   1664.643073 -24437.990490  72213.721709 999999.999999
*  2023  1  8 22 42 30.00000000
PL65   1325.411544  -6446.543545  -1969.750728  25157.982723
VL65   1076.478562 -22087.387779  72983.200467 999999.999999
*  2023  1  8 22 43  0.00000000
PL65   1327.770017  -6509.245485  -1749.747999  25158.449788
VL65    497.417355 -19709.597344  73671.724446 999999.999999
*  2023  1  8 22 43 30.00000000
PL65   1328.405909  -6564.776626  -1527.802131  25158.916643
VL65    -71.784137 -17307.305423  74278.501900 999999.999999
*  2023  1  8 22 44  0.00000000
PL65   1327.349905  -6613.067535  -1304.159435  25159.383480
VL65   -630.393659 -14883.231457  74802.834861 999999.999999
*  2023  1  8 22 44 30.00000000
PL65   1324.634848  -6654.056981  -1079.068173  25159.850204
VL65  -1177.703235 -12440.124763  75244.120019 999999.999999
EOF
